[{"OBJECT_NAME":"STARLINK-4694","OBJECT_ID":"2022-107J","EPOCH":"2026-03-09T17:42:14.673312","MEAN_MOTION":15.08838325,"ECCENTRICITY":0.00012977,"INCLINATION":53.2177,"RA_OF_ASC_NODE":228.7731,"ARG_OF_PERICENTER":85.2751,"MEAN_ANOMALY":274.839,"EPHEMERIS_TYPE":0,"CLASSIFICATION_TYPE":"U","NORAD_CAT_ID":53708,"ELEMENT_SET_NO":999,"REV_AT_EPOCH":19507,"BSTAR":1.4713519e-5,"MEAN_MOTION_DOT":-5.4e-7,"MEAN_MOTION_DDOT":0},{"OBJECT_NAME":"CZ-4C DEB","OBJECT_ID":"2018-031H","EPOCH":"2026-03-09T10:10:58.582560","MEAN_MOTION":15.14033759,"ECCENTRICITY":0.00199639,"INCLINATION":98.1663,"RA_OF_ASC_NODE":242.9335,"ARG_OF_PERICENTER":272.748,"MEAN_ANOMALY":87.1465,"EPHEMERIS_TYPE":0,"CLASSIFICATION_TYPE":"U","NORAD_CAT_ID":43266,"ELEMENT_SET_NO":999,"REV_AT_EPOCH":43166,"BSTAR":0.00079064643,"MEAN_MOTION_DOT":0.00014379,"MEAN_MOTION_DDOT":0}]
